HULIANWANG DIGUI-140    
1 67438U 26007D   26196.74913197 -.00000119  00000+0  11809-4 0  9992
2 67438  50.0071 343.6017 0000876 120.2635 239.8324 13.29326037 24583
HULIANWANG DIGUI-141    
1 67439U 26007E   26196.79086501 -.00000107  00000+0  36625-4 0  9998
2 67439  50.0065 343.1481 0000860 117.6547 242.4412 13.29326848 24591
HULIANWANG DIGUI-142    
1 67440U 26007F   26196.78254252 -.00000111  00000+0  27350-4 0  9999
2 67440  50.0138 343.2200 0000887 117.6518 242.4444 13.29326564 24591
HULIANWANG DIGUI-143    
1 67441U 26007G   26196.77423366 -.00000112  00000+0  25049-4 0  9997
2 67441  50.0122 343.1484 0000731 120.1401 239.9544 13.29324955 24590
HULIANWANG DIGUI-144    
1 67442U 26007H   26196.38979399 -.00000105  00000+0  40917-4 0  9990
2 67442  50.0107 344.4365 0000885 124.8257 235.2698 13.29329273 24548
HULIANWANG DIGUI-145    
1 67443U 26007J   26197.13342469 -.00000116  00000+0  18242-4 0  9995
2 67443  50.0111 341.7035 0000838 121.2447 238.8508 13.29325778 24644
HULIANWANG DIGUI-146    
1 67522U 26013A   26197.10304509 -.00000083  00000+0  88702-4 0  9991
2 67522  50.0070 252.2002 0001337 221.2915 138.7857 13.29325286 23897
HULIANWANG DIGUI-147    
1 67523U 26013B   26197.09454651 -.00000088  00000+0  77303-4 0  9994
2 67523  50.0040 252.1082 0001251 222.0350 138.0427 13.29328834 23897
HULIANWANG DIGUI-148    
1 67524U 26013C   26196.40954911 -.00000088  00000+0  77766-4 0  9996
2 67524  50.0082 254.5541 0001294 218.3476 141.7304 13.29326702 23802
HULIANWANG DIGUI-149    
1 67525U 26013D   26197.15312774 -.00000106  00000+0  38185-4 0  9998
2 67525  50.0075 251.8068 0001498 223.3972 136.6783 13.29331413 23902
HULIANWANG DIGUI-150    
1 67526U 26013E   26196.53500838 -.00000067  00000+0  12365-3 0  9997
2 67526  50.0036 253.8184 0001284 220.1084 139.9693 13.29325776 23847
HULIANWANG DIGUI-151    
1 67527U 26013F   26196.54332934 -.00000074  00000+0  10766-3 0  9990
2 67527  50.0086 253.9280 0001270 219.0463 141.0317 13.29327902 23822
HULIANWANG DIGUI-152    
1 67528U 26013G   26197.20318107 -.00000086  00000+0  82154-4 0  9995
2 67528  50.0027 251.3376 0001255 224.1568 135.9204 13.29332509 23918
HULIANWANG DIGUI-153    
1 67529U 26013H   26197.19492420 -.00000090  00000+0  72685-4 0  9998
2 67529  50.0028 251.2973 0001262 225.6022 134.4746 13.29323831 23903
HULIANWANG DIGUI-154    
1 67530U 26013J   26197.18646366 -.00000088  00000+0  77580-4 0  9995
2 67530  50.0053 251.2927 0001252 223.0922 136.9852 13.29332322 23902
HULIANWANG DIGUI-155    
1 68129U 26047A   26197.32353044 -.00000098  00000+0  57034-4 0  9994
2 68129  50.0046 311.8859 0000922 205.4166 154.6661 13.29333874 16947
